[{"OBJECT_NAME":"MONITOR-3 (RS58S)","OBJECT_ID":"2023-091Q","EPOCH":"2026-03-09T23:24:02.583360","MEAN_MOTION":15.25747617,"ECCENTRICITY":0.0013676,"INCLINATION":97.5199,"RA_OF_ASC_NODE":131.7909,"ARG_OF_PERICENTER":91.0881,"MEAN_ANOMALY":269.1924,"EPHEMERIS_TYPE":0,"CLASSIFICATION_TYPE":"U","NORAD_CAT_ID":57180,"ELEMENT_SET_NO":999,"REV_AT_EPOCH":14915,"BSTAR":0.00054974842,"MEAN_MOTION_DOT":0.00014004,"MEAN_MOTION_DDOT":0},{"OBJECT_NAME":"STARLINK-31083","OBJECT_ID":"2023-211D","EPOCH":"2026-03-09T09:28:54.098112","MEAN_MOTION":15.27566918,"ECCENTRICITY":0.00012192,"INCLINATION":43.0009,"RA_OF_ASC_NODE":86.5899,"ARG_OF_PERICENTER":263.7661,"MEAN_ANOMALY":96.3052,"EPHEMERIS_TYPE":0,"CLASSIFICATION_TYPE":"U","NORAD_CAT_ID":58670,"ELEMENT_SET_NO":999,"REV_AT_EPOCH":12242,"BSTAR":-6.8275565e-5,"MEAN_MOTION_DOT":-2.14e-5,"MEAN_MOTION_DDOT":0}]
